OBJECT_NAME,OBJECT_ID,EPOCH,MEAN_MOTION,ECCENTRICITY,INCLINATION,RA_OF_ASC_NODE,ARG_OF_PERICENTER,MEAN_ANOMALY,EPHEMERIS_TYPE,CLASSIFICATION_TYPE,NORAD_CAT_ID,ELEMENT_SET_NO,REV_AT_EPOCH,BSTAR,MEAN_MOTION_DOT,MEAN_MOTION_DDOT
ICEYE-X72,2026-067CS,2026-05-12T03:51:31.564800,14.91858422,.00034691,97.7606,90.9933,92.2553,267.9063,0,U,68504,999,635,.178495E-3,.1747E-4,0
GEMS2-AMETHYST,2026-067CT,2026-05-11T20:33:05.227200,14.90849369,.00060126,97.7584,90.6144,148.4866,211.6713,0,U,68505,999,630,.23312961E-3,.2241E-4,0
STARLINK-37262,2026-068A,2026-05-12T03:21:49.989888,15.80959093,.00015988,53.1560,191.3347,104.9310,255.1890,0,U,68508,999,670,.16767594E-2,.345178E-2,0
STARLINK-36292,2026-068B,2026-05-12T04:33:15.143904,15.49343423,.00010712,53.1594,193.8487,353.6458,6.4537,0,U,68509,999,667,.71011168E-3,.39292E-3,0
STARLINK-37260,2026-068C,2026-05-12T06:00:02.999808,15.49312550,.00012605,53.1604,191.7991,96.9206,29.5806,0,U,68510,999,591,.11657062E-3,.6041E-4,0
STARLINK-37280,2026-068D,2026-05-11T21:14:27.721248,15.80957925,.0003229,53.1554,192.5867,71.6336,288.5037,0,U,68511,999,666,.1519E-2,.311419E-2,0
STARLINK-37286,2026-068E,2026-05-12T03:17:30.772608,15.81058100,.00015142,53.1567,191.3149,136.9655,223.1487,0,U,68512,999,670,.18359887E-2,.381369E-2,0
STARLINK-36250,2026-068F,2026-05-12T05:06:50.563008,15.49331613,.00012213,53.1586,194.0015,91.8760,268.2389,0,U,68513,999,667,.49458552E-3,.27176E-3,0
STARLINK-37251,2026-068G,2026-05-11T11:05:07.031616,15.42165022,.00011134,53.1592,198.5702,94.3379,265.7754,0,U,68514,999,654,.64276496E-3,.27664E-3,0
STARLINK-36293,2026-068H,2026-05-11T21:22:06.021408,15.49337700,.000118,53.1587,195.5425,84.5092,275.6052,0,U,68515,999,662,.37224E-3,.20329E-3,0
STARLINK-36290,2026-068J,2026-05-11T12:48:14.071680,15.49325704,.0001024,53.1599,196.8606,82.6575,277.4550,0,U,68516,999,657,.69716E-3,.38539E-3,0
STARLINK-36298,2026-068K,2026-05-12T04:37:43.049568,15.42185460,.00015039,53.1583,195.3157,84.8942,275.2235,0,U,68517,999,665,.60971186E-3,.26234E-3,0
STARLINK-36857,2026-068L,2026-05-11T21:26:46.485312,15.49323321,.0001671,53.1588,195.5616,91.4786,268.6414,0,U,68518,999,662,.43967E-3,.24092E-3,0
STARLINK-36326,2026-068M,2026-05-11T21:27:02.755296,15.49345349,.0001191,53.1586,195.5636,85.6694,274.4451,0,U,68519,999,662,.57336E-3,.3161E-3,0
STARLINK-37126,2026-068N,2026-05-11T21:25:02.679168,15.49322969,.0001727,53.1588,195.5525,85.1361,274.9845,0,U,68520,999,662,.54847E-3,.30188E-3,0
STARLINK-36347,2026-068P,2026-05-12T06:00:02.999808,15.30207667,.00010912,53.1610,194.1252,80.0253,332.1209,0,U,68521,999,591,-.36886409E-3,-.1127E-3,0
STARLINK-36322,2026-068Q,2026-05-11T12:57:08.120448,15.49365390,.00009156,53.1590,196.9003,121.0504,239.0596,0,U,68522,999,657,.51068593E-3,.28112E-3,0
STARLINK-37208,2026-068R,2026-05-11T20:58:50.098080,15.49330210,.0001224,53.1585,195.4351,80.2554,279.8594,0,U,68523,999,662,.74431E-3,.41197E-3,0
STARLINK-36302,2026-068S,2026-05-11T10:56:31.635744,15.49375315,.0001109,53.1589,197.8126,72.7617,287.3513,0,U,68524,999,655,.61847345E-3,.34179E-3,0
STARLINK-36311,2026-068T,2026-05-12T05:21:59.406336,15.49331137,.00017798,53.1589,194.0640,104.4488,255.6718,0,U,68525,999,667,.60535232E-3,.33389E-3,0
STARLINK-37178,2026-068U,2026-05-11T21:38:31.765056,15.42171294,.0001167,53.1589,196.3332,83.2422,276.8717,0,U,68526,999,661,.52782E-3,.22633E-3,0
STARLINK-37248,2026-068V,2026-05-12T06:00:02.999808,15.49296467,.00012731,53.1601,191.3799,62.0751,269.7829,0,U,68527,999,592,.3574943E-3,.19475E-3,0
STARLINK-37241,2026-068W,2026-05-12T00:00:02.000160,15.30174001,.00008997,53.1600,195.4080,73.9999,336.1816,0,U,68528,999,588,.13120691E-2,.38672E-3,0
STARLINK-37244,2026-068X,2026-05-11T11:06:29.645568,15.49322577,.00012469,53.1588,197.8546,86.8461,273.2691,0,U,68529,999,655,.69354463E-3,.38332E-3,0
STARLINK-36285,2026-068Y,2026-05-12T06:00:02.999808,15.30208040,.00011391,53.1606,194.2138,80.3040,285.3154,0,U,68530,999,592,-.37676905E-3,-.11504E-3,0
STARLINK-36294,2026-068Z,2026-05-12T06:00:02.999808,15.30186963,.00012468,53.1607,194.1801,70.2893,312.6876,0,U,68531,999,587,-.13337669E-3,-.4305E-4,0
STARLINK-36249,2026-068AA,2026-05-11T21:51:37.062432,15.49331436,.0001254,53.1597,195.6720,86.2389,273.8763,0,U,68532,999,662,.55203E-3,.30397E-3,0
STARLINK-36252,2026-068AB,2026-05-12T04:41:17.879712,15.49336917,.00020033,53.1585,193.8836,82.6837,277.4400,0,U,68533,999,667,.54635413E-3,.30085E-3,0
STARLINK-36299,2026-068AC,2026-05-11T21:23:45.904128,15.49326774,.0002827,53.1593,195.5447,83.4406,276.6925,0,U,68534,999,662,.7682E-3,.42539E-3,0
STARLINK-37234,2026-068AD,2026-05-11T21:15:11.050848,15.42170345,.0001677,53.1588,196.2264,84.5671,275.5527,0,U,68535,999,661,.48966E-3,.20962E-3,0
