ICEYE-X72               
1 68504U 26067CS  26132.16078200  .00001747  00000+0  17849-3 0  9992
2 68504  97.7606  90.9933 0003469  92.2553 267.9063 14.91858422  6352
GEMS2-AMETHYST          
1 68505U 26067CT  26131.85631050  .00002241  00000+0  23313-3 0  9999
2 68505  97.7584  90.6144 0006012 148.4866 211.6713 14.90849369  6309
STARLINK-37262          
1 68508U 26068A   26132.14016192  .00345178  00000+0  16768-2 0  9994
2 68508  53.1560 191.3347 0001598 104.9310 255.1890 15.80959093  6700
STARLINK-36292          
1 68509U 26068B   26132.18975861  .00039292  00000+0  71011-3 0  9996
2 68509  53.1594 193.8487 0001071 353.6458   6.4537 15.49343423  6672
STARLINK-37260          
1 68510U 26068C   26132.25003472  .00006041  00000+0  11657-3 0  9992
2 68510  53.1604 191.7991 0001260  96.9206  29.5806 15.49312550  5919
STARLINK-37280          
1 68511U 26068D   26131.88504307  .00311419  00000+0  15190-2 0  9997
2 68511  53.1554 192.5867 0003229  71.6336 288.5037 15.80957925  6668
STARLINK-37286          
1 68512U 26068E   26132.13716172  .00381369  00000+0  18360-2 0  9995
2 68512  53.1567 191.3149 0001514 136.9655 223.1487 15.81058100  6704
STARLINK-36250          
1 68513U 26068F   26132.21308522  .00027176  00000+0  49459-3 0  9998
2 68513  53.1586 194.0015 0001221  91.8760 268.2389 15.49331613  6673
STARLINK-37251          
1 68514U 26068G   26131.46188694  .00027664  00000+0  64276-3 0  9997
2 68514  53.1592 198.5702 0001113  94.3379 265.7754 15.42165022  6543
STARLINK-36293          
1 68515U 26068H   26131.89034747  .00020329  00000+0  37224-3 0  9998
2 68515  53.1587 195.5425 0001180  84.5092 275.6052 15.49337700  6625
STARLINK-36290          
1 68516U 26068J   26131.53349620  .00038539  00000+0  69716-3 0  9992
2 68516  53.1599 196.8606 0001024  82.6575 277.4550 15.49325704  6574
STARLINK-36298          
1 68517U 26068K   26132.19285937  .00026234  00000+0  60971-3 0  9999
2 68517  53.1583 195.3157 0001503  84.8942 275.2235 15.42185460  6658
STARLINK-36857          
1 68518U 26068L   26131.89359358  .00024092  00000+0  43967-3 0  9991
2 68518  53.1588 195.5616 0001671  91.4786 268.6414 15.49323321  6621
STARLINK-36326          
1 68519U 26068M   26131.89378189  .00031610  00000+0  57336-3 0  9994
2 68519  53.1586 195.5636 0001191  85.6694 274.4451 15.49345349  6622
STARLINK-37126          
1 68520U 26068N   26131.89239212  .00030188  00000+0  54847-3 0  9992
2 68520  53.1588 195.5525 0001727  85.1361 274.9845 15.49322969  6629
STARLINK-36347          
1 68521U 26068P   26132.25003472 -.00011270  00000+0 -36886-3 0  9997
2 68521  53.1610 194.1252 0001091  80.0253 332.1209 15.30207667  5915
STARLINK-36322          
1 68522U 26068Q   26131.53967732  .00028112  00000+0  51069-3 0  9997
2 68522  53.1590 196.9003 0000915 121.0504 239.0596 15.49365390  6571
STARLINK-37208          
1 68523U 26068R   26131.87419095  .00041197  00000+0  74431-3 0  9995
2 68523  53.1585 195.4351 0001224  80.2554 279.8594 15.49330210  6620
STARLINK-36302          
1 68524U 26068S   26131.45592171  .00034179  00000+0  61847-3 0  9996
2 68524  53.1589 197.8126 0001109  72.7617 287.3513 15.49375315  6551
STARLINK-36311          
1 68525U 26068T   26132.22360424  .00033389  00000+0  60535-3 0  9992
2 68525  53.1589 194.0640 0001779 104.4488 255.6718 15.49331137  6676
STARLINK-37178          
1 68526U 26068U   26131.90175654  .00022633  00000+0  52782-3 0  9991
2 68526  53.1589 196.3332 0001167  83.2422 276.8717 15.42171294  6610
STARLINK-37248          
1 68527U 26068V   26132.25003472  .00019475  00000+0  35749-3 0  9993
2 68527  53.1601 191.3799 0001273  62.0751 269.7829 15.49296467  5921
STARLINK-37241          
1 68528U 26068W   26132.00002315  .00038672  00000+0  13121-2 0  9991
2 68528  53.1600 195.4080 0000899  73.9999 336.1816 15.30174001  5886
STARLINK-37244          
1 68529U 26068X   26131.46284312  .00038332  00000+0  69354-3 0  9993
2 68529  53.1588 197.8546 0001246  86.8461 273.2691 15.49322577  6559
STARLINK-36285          
1 68530U 26068Y   26132.25003472 -.00011504  00000+0 -37677-3 0  9996
2 68530  53.1606 194.2138 0001139  80.3040 285.3154 15.30208040  5929
STARLINK-36294          
1 68531U 26068Z   26132.25003472 -.00004305  00000+0 -13338-3 0  9996
2 68531  53.1607 194.1801 0001246  70.2893 312.6876 15.30186963  5878
STARLINK-36249          
1 68532U 26068AA  26131.91084563  .00030397  00000+0  55203-3 0  9994
2 68532  53.1597 195.6720 0001254  86.2389 273.8763 15.49331436  6623
STARLINK-36252          
1 68533U 26068AB  26132.19534583  .00030085  00000+0  54635-3 0  9990
2 68533  53.1585 193.8836 0002003  82.6837 277.4400 15.49336917  6672
STARLINK-36299          
1 68534U 26068AC  26131.89150352  .00042539  00000+0  76820-3 0  9992
2 68534  53.1593 195.5447 0002827  83.4406 276.6925 15.49326774  6622
STARLINK-37234          
1 68535U 26068AD  26131.88554457  .00020962  00000+0  48966-3 0  9992
2 68535  53.1588 196.2264 0001677  84.5671 275.5527 15.42170345  6619
